NORAD_CAT_ID,OBJECT_NAME,OBJECT_TYPE,EPOCH,MEAN_MOTION,ECCENTRICITY,INCLINATION,RA_OF_ASC_NODE,ARG_OF_PERICENTER,MEAN_ANOMALY,BSTAR,MEAN_MOTION_DOT,MEAN_MOTION_DDOT,TLE_LINE0,TLE_LINE1,TLE_LINE2,SEMIMAJOR_AXIS,PERIOD,APOGEE,PERIGEE,DECAYED
52842.0,STARLINK-4046,PAYLOAD,2022-10-14 22:00:00,15.08825912,0.0001807,53.2176,208.6522,44.8734,147.871,0.0010034,0.00015711,0.0,0 STARLINK-4046,1 52842U 22062N   22287.91667824  .00015711  00000-0  10034-2 0  9992,2 52842  53.2176 208.6522 0001807  44.8734 147.8710 15.08825912  1301,6917.9230000000025,95.438,541.039,538.538,0.0
52842.0,STARLINK-4046,PAYLOAD,2022-10-15 14:00:01,15.08808804,0.0001664,53.2172,205.6729,53.82,162.0839,0.0031931,0.00050854,0.0,0 STARLINK-4046,1 52842U 22062N   22288.58334491  .00050854  00000-0  31931-2 0  9993,2 52842  53.2172 205.6729 0001664  53.8200 162.0839 15.08808804  1304,6917.976,95.44,540.992,538.69,0.0
52842.0,STARLINK-4046,PAYLOAD,2022-10-15 22:00:01,15.08852646,0.0001795,53.2172,204.1775,55.4213,172.1112,-0.0030213,-0.00048069,0.0,0 STARLINK-4046,1 52842U 22062N   22288.91668981 -.00048069  00000-0 -30213-2 0  9993,2 52842  53.2172 204.1775 0001795  55.4213 172.1112 15.08852646 18965,6917.842,95.437,540.948,538.465,0.0
52842.0,STARLINK-4046,PAYLOAD,2022-10-16 14:00:01,15.08813286,0.0001720999999999,53.2167,201.1835,56.7086,193.9386,0.001314,0.00020671,0.0,0 STARLINK-4046,1 52842U 22062N   22289.58334491  .00020671  00000-0  13140-2 0  9990,2 52842  53.2167 201.1835 0001721  56.7086 193.9386 15.08813286 19067,6917.962,95.439,541.018,538.636,0.0
52842.0,STARLINK-4046,PAYLOAD,2022-10-16 22:00:00,15.08843669,0.0001778,53.2168,199.6864,56.2536,205.969,-0.00038271,-6.374e-05,0.0,0 STARLINK-4046,1 52842U 22062N   22289.91667824 -.00006374  00000-0 -38271-3 0  9995,2 52842  53.2168 199.6864 0001778  56.2536 205.9690 15.08843669  1306,6917.869000000002,95.437,540.964,538.504,0.0
52842.0,STARLINK-4046,PAYLOAD,2022-10-17 14:00:01,15.08814118,0.0001651,53.2162,196.6937,55.6669,229.771,0.0038174999999999,0.0006095,0.0,0 STARLINK-4046,1 52842U 22062N   22290.58334491  .00060950  00000-0  38175-2 0  9991,2 52842  53.2162 196.6937 0001651  55.6669 229.7710 15.08814118  1302,6917.96,95.439,540.967,538.682,0.0
52842.0,STARLINK-4046,PAYLOAD,2022-10-17 22:00:00,15.0887949,0.000172,53.2166,195.1972,53.6714,243.3534,-0.0034292,-0.0005451,0.0,0 STARLINK-4046,1 52842U 22062N   22290.91667824 -.00054510  00000-0 -34292-2 0  9990,2 52842  53.2166 195.1972 0001720  53.6714 243.3534 15.08879490  1305,6917.76,95.435,540.815,538.435,0.0
52842.0,STARLINK-4046,PAYLOAD,2022-10-18 00:00:00,15.08865877,0.0001797,53.2167,194.8224,51.5032,338.4316,-0.0024304,-0.00038788,0.0,0 STARLINK-4046,1 52842U 22062N   22291.00001157 -.00038788  00000-0 -24304-2 0  9994,2 52842  53.2167 194.8224 0001797  51.5032 338.4316 15.08865877 19279,6917.801,95.436,540.909,538.423,0.0
52842.0,STARLINK-4046,PAYLOAD,2022-10-18 14:00:01,15.08795966,0.000177,53.2164,192.2059,55.5712,264.6497,0.0039254,0.00062665,0.0,0 STARLINK-4046,1 52842U 22062N   22291.58334491  .00062665  00000-0  39254-2 0  9996,2 52842  53.2164 192.2059 0001770  55.5712 264.6497 15.08795966  1300,6918.015,95.44,541.104,538.655,0.0
52842.0,STARLINK-4046,PAYLOAD,2022-10-18 22:00:00,15.08844056,0.0001921,53.2166,190.7107,53.6637,278.1183,-0.00075568,-0.00012296,0.0,0 STARLINK-4046,1 52842U 22062N   22291.91667824 -.00012296  00000-0 -75568-3 0  9998,2 52842  53.2166 190.7107 0001921  53.6637 278.1183 15.08844056  1309,6917.868,95.437,541.062,538.404,0.0
52842.0,STARLINK-4046,PAYLOAD,2022-10-19 14:00:01,15.08806322,0.0001761,53.217,187.7168,54.5452,300.4465,0.0039671,0.00063358,0.0,0 STARLINK-4046,1 52842U 22062N   22292.58334491  .00063358  00000-0  39671-2 0  9990,2 52842  53.2170 187.7168 0001761  54.5452 300.4465 15.08806322  1300,6917.983,95.44,541.067,538.63,0.0
52842.0,STARLINK-4046,PAYLOAD,2022-10-19 22:00:00,15.08836856,0.0001962,53.2173,186.2042,53.5476,313.0755,1.7809000000000002e-05,-5e-08,0.0,0 STARLINK-4046,1 52842U 22062N   22292.91667824 -.00000005  00000-0  17809-4 0  9998,2 52842  53.2173 186.2042 0001962  53.5476 313.0755 15.08836856  1303,6917.89,95.438,541.112,538.398,0.0
52842.0,STARLINK-4046,PAYLOAD,2022-10-20 14:00:01,15.08813419,0.0001710999999999,53.2175,183.2262,53.9961,335.7977,0.0038494,0.00061465,0.0,0 STARLINK-4046,1 52842U 22062N   22293.58334491  .00061465  00000-0  38494-2 0  9990,2 52842  53.2175 183.2262 0001711  53.9961 335.7977 15.08813419  1308,6917.962,95.439,541.01,538.643,0.0
52842.0,STARLINK-4046,PAYLOAD,2022-10-20 22:00:00,15.08873192,0.0001854,53.2179,181.7307,50.0737,351.3092,-0.0039899,-0.00063288,0.0,0 STARLINK-4046,1 52842U 22062N   22293.91667824 -.00063288  00000-0 -39899-2 0  9993,2 52842  53.2179 181.7307 0001854  50.0737 351.3092 15.08873192  1308,6917.779,95.435,540.9259999999998,538.361,0.0
52842.0,STARLINK-4046,PAYLOAD,2022-10-21 06:00:00,15.08837168,0.0001855,53.2174,180.2341,45.6554,7.3273,0.0002773999999999,4.129e-05,0.0,0 STARLINK-4046,1 52842U 22062N   22294.25001157  .00004129  00000-0  27740-3 0  9992,2 52842  53.2174 180.2341 0001855  45.6554   7.3273 15.08837168 19764,6917.889,95.438,541.0369999999998,538.471,0.0
52842.0,STARLINK-4046,PAYLOAD,2022-10-21 14:00:01,15.08837353,0.0001710999999999,53.2179,178.7382,53.6621,10.925999999999998,0.0010431,0.00016351,0.0,0 STARLINK-4046,1 52842U 22062N   22294.58334491  .00016351  00000-0  10431-2 0  9996,2 52842  53.2179 178.7382 0001711  53.6621  10.9260 15.08837353  1304,6917.888000000001,95.438,540.937,538.57,0.0
52842.0,STARLINK-4046,PAYLOAD,2022-10-21 22:00:00,15.08856908,0.0001873,53.2177,177.2354,54.9772,21.2154,-0.0042692,-0.00067627,0.0,0 STARLINK-4046,1 52842U 22062N   22294.91667824 -.00067627  00000-0 -42692-2 0  9990,2 52842  53.2177 177.2354 0001873  54.9772  21.2154 15.08856908  1309,6917.829000000002,95.436,540.989,538.398,0.0
52842.0,STARLINK-4046,PAYLOAD,2022-10-22 08:00:01,15.08850533,0.0001893,53.2178,175.3732,52.6613,127.9927,-0.0015339,-0.00024625,0.0,0 STARLINK-4046,1 52842U 22062N   22295.33334491 -.00024625  00000-0 -15339-2 0  9997,2 52842  53.2178 175.3732 0001893  52.6613 127.9927 15.08850533 19938,6917.848000000001,95.437,541.023,538.404,0.0
52842.0,STARLINK-4046,PAYLOAD,2022-10-22 14:00:01,15.08828658,0.0001785,53.2178,174.25,56.6046,42.7555,0.0022633,0.00035905,0.0,0 STARLINK-4046,1 52842U 22062N   22295.58334491  .00035905  00000-0  22633-2 0  9990,2 52842  53.2178 174.2500 0001785  56.6046  42.7555 15.08828658  1309,6917.915,95.438,541.015,538.545,0.0
52842.0,STARLINK-4046,PAYLOAD,2022-10-22 22:00:00,15.08851675,0.0001875,53.2177,172.7553,52.4786,58.4862,-0.0016442,-0.00026369,0.0,0 STARLINK-4046,1 52842U 22062N   22295.91667824 -.00026369  00000-0 -16442-2 0  9993,2 52842  53.2177 172.7553 0001875  52.4786  58.4862 15.08851675  1304,6917.845,95.437,541.007,538.413,0.0
52842.0,STARLINK-4046,PAYLOAD,2022-10-23 00:00:02,15.08831687,0.0001895,53.2177,172.3816,50.7287,153.2036,0.00099426,0.00015567,0.0,0 STARLINK-4046,1 52842U 22062N   22296.00002315  .00015567  00000-0  99426-3 0  9992,2 52842  53.2177 172.3816 0001895  50.7287 153.2036 15.08831687 20030,6917.906,95.438,541.082,538.46,0.0
52842.0,STARLINK-4046,PAYLOAD,2022-10-23 14:00:01,15.08844727,0.0001703,53.2173,169.7612,56.9741,77.2013,0.002048,0.00032461,0.0,0 STARLINK-4046,1 52842U 22062N   22296.58334491  .00032461  00000-0  20480-2 0  9993,2 52842  53.2173 169.7612 0001703  56.9741  77.2013 15.08844727  1309,6917.866,95.437,540.909,538.553,0.0
52842.0,STARLINK-4046,PAYLOAD,2022-10-23 22:00:00,15.08862987,0.0001794,53.217,168.2665,51.4806,94.3095,-0.0037216,-0.0005907,0.0,0 STARLINK-4046,1 52842U 22062N   22296.91667824 -.00059070  00000-0 -37216-2 0  9991,2 52842  53.2170 168.2665 0001794  51.4806  94.3095 15.08862987  1308,6917.81,95.436,540.9159999999998,538.434,0.0
52842.0,STARLINK-4046,PAYLOAD,2022-10-24 06:00:00,15.08849103,0.0001778,53.2165,166.7697,49.8188,107.5682,-0.0053586,-0.00084592,0.0,0 STARLINK-4046,1 52842U 22062N   22297.25001157 -.00084592  00000-0 -53586-2 0  9995,2 52842  53.2165 166.7697 0001778  49.8188 107.5682 15.08849103 20222,6917.853,95.437,540.948,538.488,0.0
52842.0,STARLINK-4046,PAYLOAD,2022-10-24 14:00:01,15.08774788,0.000172,53.2165,165.2722,57.955,111.0018,0.0023603,0.00037409,0.0,0 STARLINK-4046,1 52842U 22062N   22297.58334491  .00037409  00000-0  23603-2 0  9991,2 52842  53.2165 165.2722 0001720  57.9550 111.0018 15.08774788  1302,6918.08,95.442,541.135,538.755,0.0
52842.0,STARLINK-4046,PAYLOAD,2022-10-24 22:00:00,15.08785622,0.0001841999999999,53.2162,163.7777,52.0501,128.4422,0.0027196,0.00043196,0.0,0 STARLINK-4046,1 52842U 22062N   22297.91667824  .00043196  00000-0  27196-2 0  9998,2 52842  53.2162 163.7777 0001842  52.0501 128.4422 15.08785622  1309,6918.047,95.441,541.186,538.637,0.0
52842.0,STARLINK-4046,PAYLOAD,2022-10-25 00:00:00,15.08783063,0.0001874,53.2163,163.4039,50.8296,222.5489,0.004231,0.00067589,0.0,0 STARLINK-4046,1 52842U 22062N   22298.00001157  .00067589  00000-0  42310-2 0  9997,2 52842  53.2163 163.4039 0001874  50.8296 222.5489 15.08783063 20330,6918.054,95.441,541.216,538.623,0.0
52842.0,STARLINK-4046,PAYLOAD,2022-10-25 14:00:01,15.08821653,0.0001718,53.2159,160.7833,57.0036,146.6172,0.0019526,0.00030909,0.0,0 STARLINK-4046,1 52842U 22062N   22298.58334491  .00030909  00000-0  19526-2 0  9999,2 52842  53.2159 160.7833 0001718  57.0036 146.6172 15.08821653  1304,6917.936,95.439,540.99,538.613,0.0
52842.0,STARLINK-4046,PAYLOAD,2022-10-25 22:00:01,15.08835411,0.0001899999999999,53.2157,159.2885,51.5591,163.7144,6.7401e-05,7.85e-06,0.0,0 STARLINK-4046,1 52842U 22062N   22298.91668981  .00000785  00000-0  67401-4 0  9996,2 52842  53.2157 159.2885 0001900  51.5591 163.7144 15.08835411  1306,6917.894,95.438,541.0740000000002,538.445,0.0
